[{"OBJECT_NAME":"NOAA 18","OBJECT_ID":"2005-018A","EPOCH":"2026-04-10T11:04:22.755072","MEAN_MOTION":14.13717659,"ECCENTRICITY":0.0013887,"INCLINATION":98.8119,"RA_OF_ASC_NODE":181.1173,"ARG_OF_PERICENTER":347.9,"MEAN_ANOMALY":12.1837,"EPHEMERIS_TYPE":0,"CLASSIFICATION_TYPE":"U","NORAD_CAT_ID":28654,"ELEMENT_SET_NO":999,"REV_AT_EPOCH":7674,"BSTAR":4.2311e-5,"MEAN_MOTION_DOT":3.6e-7,"MEAN_MOTION_DDOT":0},{"OBJECT_NAME":"NOAA 19","OBJECT_ID":"2009-005A","EPOCH":"2026-04-10T10:45:27.567072","MEAN_MOTION":14.13463362,"ECCENTRICITY":0.0013168,"INCLINATION":98.9553,"RA_OF_ASC_NODE":171.2637,"ARG_OF_PERICENTER":218.3435,"MEAN_ANOMALY":141.6802,"EPHEMERIS_TYPE":0,"CLASSIFICATION_TYPE":"U","NORAD_CAT_ID":33591,"ELEMENT_SET_NO":999,"REV_AT_EPOCH":88491,"BSTAR":4.6866e-5,"MEAN_MOTION_DOT":4.3e-7,"MEAN_MOTION_DDOT":0},{"OBJECT_NAME":"SUOMI NPP","OBJECT_ID":"2011-061A","EPOCH":"2026-04-10T12:46:55.172064","MEAN_MOTION":14.1950269,"ECCENTRICITY":0.0002281,"INCLINATION":98.7907,"RA_OF_ASC_NODE":41.8887,"ARG_OF_PERICENTER":132.3551,"MEAN_ANOMALY":227.7819,"EPHEMERIS_TYPE":0,"CLASSIFICATION_TYPE":"U","NORAD_CAT_ID":37849,"ELEMENT_SET_NO":999,"REV_AT_EPOCH":74884,"BSTAR":6.386e-5,"MEAN_MOTION_DOT":9.0e-7,"MEAN_MOTION_DDOT":0},{"OBJECT_NAME":"NOAA 20 (JPSS-1)","OBJECT_ID":"2017-073A","EPOCH":"2026-04-10T11:25:39.155232","MEAN_MOTION":14.1954472,"ECCENTRICITY":0.0002116,"INCLINATION":98.7727,"RA_OF_ASC_NODE":40.5547,"ARG_OF_PERICENTER":94.6495,"MEAN_ANOMALY":265.4923,"EPHEMERIS_TYPE":0,"CLASSIFICATION_TYPE":"U","NORAD_CAT_ID":43013,"ELEMENT_SET_NO":999,"REV_AT_EPOCH":43486,"BSTAR":5.4011e-5,"MEAN_MOTION_DOT":7.0e-7,"MEAN_MOTION_DDOT":0},{"OBJECT_NAME":"NOAA 21 (JPSS-2)","OBJECT_ID":"2022-150A","EPOCH":"2026-04-10T07:10:37.447392","MEAN_MOTION":14.19560952,"ECCENTRICITY":0.00025049,"INCLINATION":98.759,"RA_OF_ASC_NODE":40.21,"ARG_OF_PERICENTER":51.4004,"MEAN_ANOMALY":308.7396,"EPHEMERIS_TYPE":0,"CLASSIFICATION_TYPE":"U","NORAD_CAT_ID":54234,"ELEMENT_SET_NO":999,"REV_AT_EPOCH":17691,"BSTAR":5.745285e-5,"MEAN_MOTION_DOT":7.7e-7,"MEAN_MOTION_DDOT":0}]
