{"fetched_at":"2026-04-11T05:26:22Z","count":2456,"tles":[{"name":"NOAA 21 (JPSS-2)","line1":"1 54234U 22150A   26100.29904453  .00000077  00000+0  57453-4 0  9994","line2":"2 54234  98.7590  40.2100 0002504  51.4004 308.7396 14.19560952176912","category":"Weather"},{"name":"NOAA 19","line1":"1 33591U 09005A   26100.44823573  .00000043  00000+0  46866-4 0  9990","line2":"2 33591  98.9553 171.2637 0013168 218.3435 141.6802 14.13463362884919","category":"Weather"},{"name":"NOAA 18","line1":"1 28654U 05018A   26100.46137448  .00000036  00000+0  42311-4 0  9998","line2":"2 28654  98.8119 181.1173 0013887 347.9000  12.1837 14.13717659 76745","category":"Weather"},{"name":"NOAA 20 (JPSS-1)","line1":"1 43013U 17073A   26100.47614763  .00000070  00000+0  54011-4 0  9997","line2":"2 43013  98.7727  40.5547 0002116  94.6495 265.4923 14.19544720434868","category":"Weather"},{"name":"SUOMI NPP","line1":"1 37849U 11061A   26100.53258301  .00000090  00000+0  63860-4 0  9991","line2":"2 37849  98.7907  41.8887 0002281 132.3551 227.7819 14.19502690748846","category":"Weather"}]}